[{"OBJECT_NAME":"ONEWEB-0686","OBJECT_ID":"2023-068M","EPOCH":"2026-03-17T04:07:21.202752","MEAN_MOTION":13.16595013,"ECCENTRICITY":0.00019411,"INCLINATION":87.9002,"RA_OF_ASC_NODE":247.0983,"ARG_OF_PERICENTER":89.4012,"MEAN_ANOMALY":270.7342,"EPHEMERIS_TYPE":0,"CLASSIFICATION_TYPE":"U","NORAD_CAT_ID":56721,"ELEMENT_SET_NO":999,"REV_AT_EPOCH":13960,"BSTAR":-8.41169e-7,"MEAN_MOTION_DOT":1.3e-7,"MEAN_MOTION_DDOT":0},{"OBJECT_NAME":"ONEWEB-0694","OBJECT_ID":"2023-068N","EPOCH":"2026-03-17T04:16:29.282880","MEAN_MOTION":13.16594756,"ECCENTRICITY":0.00016505,"INCLINATION":87.9023,"RA_OF_ASC_NODE":247.0437,"ARG_OF_PERICENTER":80.6917,"MEAN_ANOMALY":279.44,"EPHEMERIS_TYPE":0,"CLASSIFICATION_TYPE":"U","NORAD_CAT_ID":56722,"ELEMENT_SET_NO":999,"REV_AT_EPOCH":13966,"BSTAR":-6.1254613e-5,"MEAN_MOTION_DOT":-1.1e-7,"MEAN_MOTION_DDOT":0},{"OBJECT_NAME":"ONEWEB-0696","OBJECT_ID":"2023-068P","EPOCH":"2026-03-17T07:05:22.772544","MEAN_MOTION":13.15556742,"ECCENTRICITY":0.00020591,"INCLINATION":87.8931,"RA_OF_ASC_NODE":277.5704,"ARG_OF_PERICENTER":103.9773,"MEAN_ANOMALY":256.1586,"EPHEMERIS_TYPE":0,"CLASSIFICATION_TYPE":"U","NORAD_CAT_ID":56723,"ELEMENT_SET_NO":999,"REV_AT_EPOCH":13728,"BSTAR":-0.0037972656,"MEAN_MOTION_DOT":-1.417e-5,"MEAN_MOTION_DDOT":0},{"OBJECT_NAME":"ONEWEB-0703","OBJECT_ID":"2023-068Q","EPOCH":"2026-03-17T01:50:31.249248","MEAN_MOTION":13.15548278,"ECCENTRICITY":0.00019749,"INCLINATION":87.893,"RA_OF_ASC_NODE":277.5953,"ARG_OF_PERICENTER":122.2364,"MEAN_ANOMALY":237.8958,"EPHEMERIS_TYPE":0,"CLASSIFICATION_TYPE":"U","NORAD_CAT_ID":56724,"ELEMENT_SET_NO":999,"REV_AT_EPOCH":13714,"BSTAR":0.00029947249,"MEAN_MOTION_DOT":1.26e-6,"MEAN_MOTION_DDOT":0},{"OBJECT_NAME":"ONEWEB-0721","OBJECT_ID":"2023-068R","EPOCH":"2026-03-17T03:18:54.539136","MEAN_MOTION":13.2246259,"ECCENTRICITY":0.00019271,"INCLINATION":86.6744,"RA_OF_ASC_NODE":114.9097,"ARG_OF_PERICENTER":97.0706,"MEAN_ANOMALY":263.0647,"EPHEMERIS_TYPE":0,"CLASSIFICATION_TYPE":"U","NORAD_CAT_ID":56725,"ELEMENT_SET_NO":999,"REV_AT_EPOCH":14577,"BSTAR":0.00013051532,"MEAN_MOTION_DOT":6.9e-7,"MEAN_MOTION_DDOT":0},{"OBJECT_NAME":"ONEWEB-0015","OBJECT_ID":"2024-188A","EPOCH":"2026-03-17T03:25:53.688864","MEAN_MOTION":13.11412908,"ECCENTRICITY":0.00015331,"INCLINATION":87.8888,"RA_OF_ASC_NODE":39.3951,"ARG_OF_PERICENTER":73.2235,"MEAN_ANOMALY":286.9061,"EPHEMERIS_TYPE":0,"CLASSIFICATION_TYPE":"U","NORAD_CAT_ID":61594,"ELEMENT_SET_NO":999,"REV_AT_EPOCH":7239,"BSTAR":4.5434623e-5,"MEAN_MOTION_DOT":2.9e-7,"MEAN_MOTION_DDOT":0},{"OBJECT_NAME":"ONEWEB-0687","OBJECT_ID":"2024-188B","EPOCH":"2026-03-17T02:53:06.101664","MEAN_MOTION":13.17647907,"ECCENTRICITY":0.0001773,"INCLINATION":87.915,"RA_OF_ASC_NODE":24.1656,"ARG_OF_PERICENTER":62.7812,"MEAN_ANOMALY":297.35,"EPHEMERIS_TYPE":0,"CLASSIFICATION_TYPE":"U","NORAD_CAT_ID":61595,"ELEMENT_SET_NO":999,"REV_AT_EPOCH":7377,"BSTAR":-0.00028061028,"MEAN_MOTION_DOT":-9.6e-7,"MEAN_MOTION_DDOT":0},{"OBJECT_NAME":"ONEWEB-0688","OBJECT_ID":"2024-188C","EPOCH":"2026-03-16T22:06:21.649824","MEAN_MOTION":13.17648955,"ECCENTRICITY":7.793e-5,"INCLINATION":87.9151,"RA_OF_ASC_NODE":24.2046,"ARG_OF_PERICENTER":48.8803,"MEAN_ANOMALY":311.2396,"EPHEMERIS_TYPE":0,"CLASSIFICATION_TYPE":"U","NORAD_CAT_ID":61596,"ELEMENT_SET_NO":999,"REV_AT_EPOCH":7374,"BSTAR":-0.00010395973,"MEAN_MOTION_DOT":-2.8e-7,"MEAN_MOTION_DDOT":0},{"OBJECT_NAME":"ONEWEB-0689","OBJECT_ID":"2024-188D","EPOCH":"2026-03-17T04:14:42.876960","MEAN_MOTION":13.11417805,"ECCENTRICITY":0.00020207,"INCLINATION":87.8893,"RA_OF_ASC_NODE":39.3275,"ARG_OF_PERICENTER":72.2848,"MEAN_ANOMALY":287.85,"EPHEMERIS_TYPE":0,"CLASSIFICATION_TYPE":"U","NORAD_CAT_ID":61597,"ELEMENT_SET_NO":999,"REV_AT_EPOCH":7239,"BSTAR":0.00047583562,"MEAN_MOTION_DOT":1.81e-6,"MEAN_MOTION_DDOT":0},{"OBJECT_NAME":"ONEWEB-0690","OBJECT_ID":"2024-188E","EPOCH":"2026-03-17T06:19:14.541600","MEAN_MOTION":13.11417361,"ECCENTRICITY":0.00019816,"INCLINATION":87.8884,"RA_OF_ASC_NODE":39.3303,"ARG_OF_PERICENTER":102.578,"MEAN_ANOMALY":257.5569,"EPHEMERIS_TYPE":0,"CLASSIFICATION_TYPE":"U","NORAD_CAT_ID":61598,"ELEMENT_SET_NO":999,"REV_AT_EPOCH":7258,"BSTAR":0.0014490853,"MEAN_MOTION_DOT":5.26e-6,"MEAN_MOTION_DDOT":0},{"OBJECT_NAME":"ONEWEB-0691","OBJECT_ID":"2024-188F","EPOCH":"2026-03-17T04:22:02.825760","MEAN_MOTION":13.11418709,"ECCENTRICITY":0.00015323,"INCLINATION":87.8892,"RA_OF_ASC_NODE":39.2472,"ARG_OF_PERICENTER":73.3287,"MEAN_ANOMALY":286.8009,"EPHEMERIS_TYPE":0,"CLASSIFICATION_TYPE":"U","NORAD_CAT_ID":61599,"ELEMENT_SET_NO":999,"REV_AT_EPOCH":7242,"BSTAR":0.0011269522,"MEAN_MOTION_DOT":4.12e-6,"MEAN_MOTION_DDOT":0},{"OBJECT_NAME":"ONEWEB-0692","OBJECT_ID":"2024-188G","EPOCH":"2026-03-17T03:01:28.575552","MEAN_MOTION":13.11415054,"ECCENTRICITY":0.00027862,"INCLINATION":87.8871,"RA_OF_ASC_NODE":39.389,"ARG_OF_PERICENTER":79.5032,"MEAN_ANOMALY":280.641,"EPHEMERIS_TYPE":0,"CLASSIFICATION_TYPE":"U","NORAD_CAT_ID":61600,"ELEMENT_SET_NO":999,"REV_AT_EPOCH":7240,"BSTAR":0.0010427437,"MEAN_MOTION_DOT":3.82e-6,"MEAN_MOTION_DDOT":0},{"OBJECT_NAME":"ONEWEB-0693","OBJECT_ID":"2024-188H","EPOCH":"2026-03-17T02:02:03.645024","MEAN_MOTION":13.1764869,"ECCENTRICITY":0.00017346,"INCLINATION":87.9154,"RA_OF_ASC_NODE":24.1936,"ARG_OF_PERICENTER":106.2473,"MEAN_ANOMALY":253.8849,"EPHEMERIS_TYPE":0,"CLASSIFICATION_TYPE":"U","NORAD_CAT_ID":61601,"ELEMENT_SET_NO":999,"REV_AT_EPOCH":7375,"BSTAR":4.3147458e-5,"MEAN_MOTION_DOT":3.0e-7,"MEAN_MOTION_DDOT":0},{"OBJECT_NAME":"ONEWEB-0695","OBJECT_ID":"2024-188J","EPOCH":"2026-03-17T04:17:08.722752","MEAN_MOTION":13.11419462,"ECCENTRICITY":0.00024388,"INCLINATION":87.8875,"RA_OF_ASC_NODE":39.3696,"ARG_OF_PERICENTER":74.1636,"MEAN_ANOMALY":285.9761,"EPHEMERIS_TYPE":0,"CLASSIFICATION_TYPE":"U","NORAD_CAT_ID":61602,"ELEMENT_SET_NO":999,"REV_AT_EPOCH":7240,"BSTAR":0.00031596307,"MEAN_MOTION_DOT":1.25e-6,"MEAN_MOTION_DDOT":0},{"OBJECT_NAME":"ONEWEB-0697","OBJECT_ID":"2024-188K","EPOCH":"2026-03-17T03:13:40.635840","MEAN_MOTION":13.11414494,"ECCENTRICITY":0.00026755,"INCLINATION":87.8873,"RA_OF_ASC_NODE":39.3681,"ARG_OF_PERICENTER":80.9644,"MEAN_ANOMALY":279.1787,"EPHEMERIS_TYPE":0,"CLASSIFICATION_TYPE":"U","NORAD_CAT_ID":61603,"ELEMENT_SET_NO":999,"REV_AT_EPOCH":7238,"BSTAR":-0.00016706256,"MEAN_MOTION_DOT":-4.7e-7,"MEAN_MOTION_DDOT":0},{"OBJECT_NAME":"ONEWEB-0698","OBJECT_ID":"2024-188L","EPOCH":"2026-03-17T04:31:49.086048","MEAN_MOTION":13.11416854,"ECCENTRICITY":0.00028855,"INCLINATION":87.8871,"RA_OF_ASC_NODE":39.3726,"ARG_OF_PERICENTER":98.2381,"MEAN_ANOMALY":261.9074,"EPHEMERIS_TYPE":0,"CLASSIFICATION_TYPE":"U","NORAD_CAT_ID":61604,"ELEMENT_SET_NO":999,"REV_AT_EPOCH":7241,"BSTAR":0.0014144396,"MEAN_MOTION_DOT":5.14e-6,"MEAN_MOTION_DDOT":0},{"OBJECT_NAME":"ONEWEB-0699","OBJECT_ID":"2024-188M","EPOCH":"2026-03-17T04:54:48.373920","MEAN_MOTION":13.10374952,"ECCENTRICITY":0.00025509,"INCLINATION":87.8795,"RA_OF_ASC_NODE":54.5744,"ARG_OF_PERICENTER":85.5256,"MEAN_ANOMALY":274.6162,"EPHEMERIS_TYPE":0,"CLASSIFICATION_TYPE":"U","NORAD_CAT_ID":61605,"ELEMENT_SET_NO":999,"REV_AT_EPOCH":7126,"BSTAR":-0.0014215214,"MEAN_MOTION_DOT":-4.84e-6,"MEAN_MOTION_DDOT":0}]
