ONEWEB-0686             
1 56721U 23068M   26076.17177318  .00000013  00000+0 -84117-6 0  9997
2 56721  87.9002 247.0983 0001941  89.4012 270.7342 13.16595013139609
ONEWEB-0694             
1 56722U 23068N   26076.17811670 -.00000011  00000+0 -61255-4 0  9999
2 56722  87.9023 247.0437 0001650  80.6917 279.4400 13.16594756139661
ONEWEB-0696             
1 56723U 23068P   26076.29540246 -.00001417  00000+0 -37973-2 0  9990
2 56723  87.8931 277.5704 0002059 103.9773 256.1586 13.15556742137282
ONEWEB-0703             
1 56724U 23068Q   26076.07675057  .00000126  00000+0  29947-3 0  9993
2 56724  87.8930 277.5953 0001974 122.2364 237.8958 13.15548278137142
ONEWEB-0721             
1 56725U 23068R   26076.13813124  .00000069  00000+0  13052-3 0  9996
2 56725  86.6744 114.9097 0001927  97.0706 263.0647 13.22462590145777
ONEWEB-0015             
1 61594U 24188A   26076.14298251  .00000029  00000+0  45435-4 0  9996
2 61594  87.8888  39.3951 0001533  73.2235 286.9061 13.11412908 72391
ONEWEB-0687             
1 61595U 24188B   26076.12020951 -.00000096  00000+0 -28061-3 0  9996
2 61595  87.9150  24.1656 0001773  62.7812 297.3500 13.17647907 73771
ONEWEB-0688             
1 61596U 24188C   26075.92108391 -.00000028  00000+0 -10396-3 0  9996
2 61596  87.9151  24.2046 0000779  48.8803 311.2396 13.17648955 73747
ONEWEB-0689             
1 61597U 24188D   26076.17688515  .00000181  00000+0  47584-3 0  9993
2 61597  87.8893  39.3275 0002020  72.2848 287.8500 13.11417805 72399
ONEWEB-0690             
1 61598U 24188E   26076.26336275  .00000526  00000+0  14491-2 0  9990
2 61598  87.8884  39.3303 0001981 102.5780 257.5569 13.11417361 72586
ONEWEB-0691             
1 61599U 24188F   26076.18197715  .00000412  00000+0  11270-2 0  9992
2 61599  87.8892  39.2472 0001532  73.3287 286.8009 13.11418709 72425
ONEWEB-0692             
1 61600U 24188G   26076.12602518  .00000382  00000+0  10427-2 0  9990
2 61600  87.8871  39.3890 0002786  79.5032 280.6410 13.11415054 72404
ONEWEB-0693             
1 61601U 24188H   26076.08476441  .00000030  00000+0  43147-4 0  9997
2 61601  87.9154  24.1936 0001734 106.2473 253.8849 13.17648690 73759
ONEWEB-0695             
1 61602U 24188J   26076.17857318  .00000125  00000+0  31596-3 0  9993
2 61602  87.8875  39.3696 0002438  74.1636 285.9761 13.11419462 72403
ONEWEB-0697             
1 61603U 24188K   26076.13449810 -.00000047  00000+0 -16706-3 0  9995
2 61603  87.8873  39.3681 0002675  80.9644 279.1787 13.11414494 72383
ONEWEB-0698             
1 61604U 24188L   26076.18876257  .00000514  00000+0  14144-2 0  9990
2 61604  87.8871  39.3726 0002885  98.2381 261.9074 13.11416854 72419
ONEWEB-0699             
1 61605U 24188M   26076.20472655 -.00000484  00000+0 -14215-2 0  9995
2 61605  87.8795  54.5744 0002550  85.5256 274.6162 13.10374952 71265
